0 CZ-4C R/B
1 39261U 13052B   26091.26954502  .00000090  00000-0  48662-4 0  9992
2 39261  98.8491 337.7736 0030906 322.3843  37.5179 14.33941198654696